IRIDIUM 26              
1 24903U 97043A   25214.13913989  .00000312  00000+0  98379-4 0  9993
2 24903  86.3929  91.3161 0001966  83.4275 276.7146 14.37173708463343
IRIDIUM 22              
1 24907U 97043E   25214.17667345  .00000299  00000+0  96238-4 0  9999
2 24907  86.3937  94.8812 0002058  88.0892 272.0540 14.35982717463372
DUMMY MASS 1            
1 24925U 97048A   25214.31171861  .00000397  00000+0  41116-4 0  9997
2 24925  86.3352 114.0087 0006390   4.6251 355.5032 14.87018024511980
DUMMY MASS 2            
1 24926U 97048B   25214.21425030  .00000393  00000+0  40993-4 0  9995
2 24926  86.3355 115.6698 0007648  13.8175 346.3258 14.86769888511745
IRIDIUM 29              
1 24944U 97051A   25214.25286582  .00000394  00000+0  12758-3 0  9998
2 24944  86.3978 124.5845 0002328  88.5907 271.5557 14.36499151459886
IRIDIUM 33              
1 24946U 97051C   25214.28528854  .00000296  00000+0  97292-4 0  9992
2 24946  86.3895 123.8352 0005897 296.4010  63.6581 14.34916748459353
IRIDIUM 36              
1 24967U 97056C   25214.36226330  .00000373  00000+0  11778-3 0  9993
2 24967  86.4019 153.6174 0002021  89.6976 270.4454 14.37639809458851
